{
    "links": {
        "self": "http://www.neowsapp.com/rest/v1/neo/3767324?api_key=iIulBulltgU6a56xZRHN4H3l9WmuAYTsLGpBGhQ2"
    },
    "id": "3767324",
    "neo_reference_id": "3767324",
    "name": "(2017 BH92)",
    "designation": "2017 BH92",
    "nasa_jpl_url": "http://ssd.jpl.nasa.gov/sbdb.cgi?sstr=3767324",
    "absolute_magnitude_h": 22.4,
    "estimated_diameter": {
        "kilometers": {
            "estimated_diameter_min": 0.0880146521,
            "estimated_diameter_max": 0.1968067451
        },
        "meters": {
            "estimated_diameter_min": 88.0146520901,
            "estimated_diameter_max": 196.8067450894
        },
        "miles": {
            "estimated_diameter_min": 0.0546897524,
            "estimated_diameter_max": 0.122290004
        },
        "feet": {
            "estimated_diameter_min": 288.7619911632,
            "estimated_diameter_max": 645.6914415591
        }
    },
    "is_potentially_hazardous_asteroid": false,
    "close_approach_data": [
        {
            "close_approach_date": "2016-03-24",
            "close_approach_date_full": "2016-Mar-24 04:05",
            "epoch_date_close_approach": 1458792300000,
            "relative_velocity": {
                "kilometers_per_second": "9.9248528583",
                "kilometers_per_hour": "35729.4702899316",
                "miles_per_hour": "22200.9033587633"
            },
            "miss_distance": {
                "astronomical": "0.4644659703",
                "lunar": "180.6772624467",
                "kilometers": "69483119.844363261",
                "miles": "43174808.6288085618"
            },
            "orbiting_body": "Earth"
        },
        {
            "close_approach_date": "2016-08-07",
            "close_approach_date_full": "2016-Aug-07 08:56",
            "epoch_date_close_approach": 1470560160000,
            "relative_velocity": {
                "kilometers_per_second": "14.1526126733",
                "kilometers_per_hour": "50949.4056238674",
                "miles_per_hour": "31657.9792888969"
            },
            "miss_distance": {
                "astronomical": "0.2364949018",
                "lunar": "91.9965168002",
                "kilometers": "35379133.575139166",
                "miles": "21983574.2117098508"
            },
            "orbiting_body": "Earth"
        },
        {
            "close_approach_date": "2017-01-20",
            "close_approach_date_full": "2017-Jan-20 04:23",
            "epoch_date_close_approach": 1484886180000,
            "relative_velocity": {
                "kilometers_per_second": "11.9973313207",
                "kilometers_per_hour": "43190.3927543843",
                "miles_per_hour": "26836.8304311895"
            },
            "miss_distance": {
                "astronomical": "0.3780856153",
                "lunar": "147.0753043517",
                "kilometers": "56560802.726519411",
                "miles": "35145253.1072174318"
            },
            "orbiting_body": "Earth"
        }
    ],
    "orbital_data": {
        "orbit_id": "2",
        "orbit_determination_date": "2017-04-06 08:20:30",
        "first_observation_date": "2017-01-28",
        "last_observation_date": "2017-02-01",
        "data_arc_in_days": 4,
        "observations_used": 12,
        "orbit_uncertainty": "8",
        "minimum_orbit_intersection": ".220619",
        "jupiter_tisserand_invariant": "5.570",
        "epoch_osculation": "2457782.5",
        "eccentricity": ".2953661875144809",
        "semi_major_axis": "1.097542622134468",
        "inclination": "19.22719366852446",
        "ascending_node_longitude": "309.2511991723565",
        "orbital_period": "419.9818467615589",
        "perihelion_distance": ".7733656421999637",
        "perihelion_argument": "22.42763834514631",
        "aphelion_distance": "1.421719602068972",
        "perihelion_time": "2457620.056594412018",
        "mean_anomaly": "139.2432231597734",
        "mean_motion": ".8571799061695801",
        "equinox": "J2000",
        "orbit_class": {
            "orbit_class_type": "APO",
            "orbit_class_description": "Near-Earth asteroid orbits which cross the Earth’s orbit similar to that of 1862 Apollo",
            "orbit_class_range": "a (semi-major axis) > 1.0 AU; q (perihelion) < 1.017 AU"
        }
    },
    "is_sentry_object": false
}